{"type":"FeatureCollection","properties":{"layout":"Kaggadasapura, CV Raman Nagar","generated_from":"data/raw-osm.json"},"features":[{"type":"Feature","id":270537221,"geometry":{"type":"LineString","coordinates":[[77.668494,12.9864714],[77.6684937,12.9871637]]},"properties":{"id":"w99829039:1","osm_way_id":99829039,"name":"unnamed service off Kaggadasapura Main Road","highway":"service","length_m":77,"lanes":null,"oneway":false,"from_node":1563324324,"to_node":1563324336,"width_m":4,"width_source":"class_default","width_conf":0.2,"width_note":"assumed from road class (service) — unverified","tanker_gap_m":1.5,"severity_if_tanker":"blocked"}},{"type":"Feature","id":270537222,"geometry":{"type":"LineString","coordinates":[[77.6684937,12.9871637],[77.6684936,12.9875022]]},"properties":{"id":"w99829039:2","osm_way_id":99829039,"name":"unnamed service off Kaggadasapura Main Road","highway":"service","length_m":37.6,"lanes":null,"oneway":false,"from_node":1563324336,"to_node":1563324346,"width_m":4,"width_source":"class_default","width_conf":0.2,"width_note":"assumed from road class (service) — unverified","tanker_gap_m":1.5,"severity_if_tanker":"blocked"}},{"type":"Feature","id":270537223,"geometry":{"type":"LineString","coordinates":[[77.6684936,12.9875022],[77.6684935,12.9876777]]},"properties":{"id":"w99829039:3","osm_way_id":99829039,"name":"unnamed service off Kaggadasapura Main Road","highway":"service","length_m":19.5,"lanes":null,"oneway":false,"from_node":1563324346,"to_node":1563324002,"width_m":4,"width_source":"class_default","width_conf":0.2,"width_note":"assumed from road class (service) — unverified","tanker_gap_m":1.5,"severity_if_tanker":"blocked"}},{"type":"Feature","id":270537224,"geometry":{"type":"LineString","coordinates":[[77.6684935,12.9876777],[77.6684934,12.9878866]]},"properties":{"id":"w99829039:4","osm_way_id":99829039,"name":"unnamed service off Kaggadasapura Main Road","highway":"service","length_m":23.2,"lanes":null,"oneway":false,"from_node":1563324002,"to_node":1563324004,"width_m":4,"width_source":"class_default","width_conf":0.2,"width_note":"assumed from road class (service) — unverified","tanker_gap_m":1.5,"severity_if_tanker":"blocked"}},{"type":"Feature","id":270537225,"geometry":{"type":"LineString","coordinates":[[77.6684934,12.9878866],[77.6684934,12.9879059]]},"properties":{"id":"w99829039:5","osm_way_id":99829039,"name":"unnamed service off Kaggadasapura Main Road","highway":"service","length_m":2.1,"lanes":null,"oneway":false,"from_node":1563324004,"to_node":1563324334,"width_m":4,"width_source":"class_default","width_conf":0.2,"width_note":"assumed from road class (service) — unverified","tanker_gap_m":1.5,"severity_if_tanker":"blocked"}},{"type":"Feature","id":270537226,"geometry":{"type":"LineString","coordinates":[[77.6684934,12.9879059],[77.6684932,12.9882815]]},"properties":{"id":"w99829039:6","osm_way_id":99829039,"name":"unnamed service off Kaggadasapura Main Road","highway":"service","length_m":41.8,"lanes":null,"oneway":false,"from_node":1563324334,"to_node":1563324348,"width_m":4,"width_source":"class_default","width_conf":0.2,"width_note":"assumed from road class (service) — unverified","tanker_gap_m":1.5,"severity_if_tanker":"blocked"}},{"type":"Feature","id":270537227,"geometry":{"type":"LineString","coordinates":[[77.6684932,12.9882815],[77.668493,12.9888395]]},"properties":{"id":"w99829039:7","osm_way_id":99829039,"name":"unnamed service off Kaggadasapura Main Road","highway":"service","length_m":62,"lanes":null,"oneway":false,"from_node":1563324348,"to_node":1563324010,"width_m":4,"width_source":"class_default","width_conf":0.2,"width_note":"assumed from road class (service) — unverified","tanker_gap_m":1.5,"severity_if_tanker":"blocked"}},{"type":"Feature","id":270537228,"geometry":{"type":"LineString","coordinates":[[77.668493,12.9888395],[77.6684929,12.9889166]]},"properties":{"id":"w99829039:8","osm_way_id":99829039,"name":"unnamed service off Kaggadasapura Main Road","highway":"service","length_m":8.6,"lanes":null,"oneway":false,"from_node":1563324010,"to_node":1563324356,"width_m":4,"width_source":"class_default","width_conf":0.2,"width_note":"assumed from road class (service) — unverified","tanker_gap_m":1.5,"severity_if_tanker":"blocked"}},{"type":"Feature","id":270537229,"geometry":{"type":"LineString","coordinates":[[77.6684929,12.9889166],[77.6684929,12.9891191]]},"properties":{"id":"w99829039:9","osm_way_id":99829039,"name":"unnamed service off Kaggadasapura Main Road","highway":"service","length_m":22.5,"lanes":null,"oneway":false,"from_node":1563324356,"to_node":1154147726,"width_m":4,"width_source":"class_default","width_conf":0.2,"width_note":"assumed from road class (service) — unverified","tanker_gap_m":1.5,"severity_if_tanker":"blocked"}},{"type":"Feature","id":270559323,"geometry":{"type":"LineString","coordinates":[[77.6690616,12.9891373],[77.6684929,12.9891191]]},"properties":{"id":"w99829041:0","osm_way_id":99829041,"name":"unnamed service off Kaggadasapura Main Road","highway":"service","length_m":61.7,"lanes":null,"oneway":false,"from_node":1154147727,"to_node":1154147726,"width_m":4,"width_source":"class_default","width_conf":0.2,"width_note":"assumed from road class (service) — unverified","tanker_gap_m":1.5,"severity_if_tanker":"blocked"}},{"type":"Feature","id":270559324,"geometry":{"type":"LineString","coordinates":[[77.6684929,12.9891191],[77.6675314,12.9891021]]},"properties":{"id":"w99829041:1","osm_way_id":99829041,"name":"unnamed service off Kaggadasapura Main Road","highway":"service","length_m":104.2,"lanes":null,"oneway":false,"from_node":1154147726,"to_node":1154147728,"width_m":4,"width_source":"class_default","width_conf":0.2,"width_note":"assumed from road class (service) — unverified","tanker_gap_m":1.5,"severity_if_tanker":"blocked"}},{"type":"Feature","id":1685049471,"geometry":{"type":"LineString","coordinates":[[77.6703624,12.9861937],[77.6703598,12.9862507]]},"properties":{"id":"w119050741:0","osm_way_id":119050741,"name":"unnamed residential off Kaggadasapura Main Road","highway":"residential","length_m":6.3,"lanes":2,"oneway":false,"from_node":1338425088,"to_node":9713227369,"width_m":6,"width_source":"inferred_lanes","width_conf":0.4,"width_note":"estimated from 2 lanes","tanker_gap_m":3.5,"severity_if_tanker":"squeeze"}},{"type":"Feature","id":1685049470,"geometry":{"type":"LineString","coordinates":[[77.6703598,12.9862507],[77.6703371,12.9867411]]},"properties":{"id":"w119050741:1","osm_way_id":119050741,"name":"unnamed residential off Kaggadasapura Main Road","highway":"residential","length_m":54.6,"lanes":2,"oneway":false,"from_node":9713227369,"to_node":10088394323,"width_m":6,"width_source":"inferred_lanes","width_conf":0.4,"width_note":"estimated from 2 lanes","tanker_gap_m":3.5,"severity_if_tanker":"squeeze"}},{"type":"Feature","id":1685049469,"geometry":{"type":"LineString","coordinates":[[77.6703371,12.9867411],[77.6703177,12.9870131]]},"properties":{"id":"w119050741:2","osm_way_id":119050741,"name":"unnamed residential off Kaggadasapura Main Road","highway":"residential","length_m":30.3,"lanes":2,"oneway":false,"from_node":10088394323,"to_node":9713227364,"width_m":6,"width_source":"inferred_lanes","width_conf":0.4,"width_note":"estimated from 2 lanes","tanker_gap_m":3.5,"severity_if_tanker":"squeeze"}},{"type":"Feature","id":1685049468,"geometry":{"type":"LineString","coordinates":[[77.6703177,12.9870131],[77.670302,12.9871955]]},"properties":{"id":"w119050741:3","osm_way_id":119050741,"name":"unnamed residential off Kaggadasapura Main Road","highway":"residential","length_m":20.4,"lanes":2,"oneway":false,"from_node":9713227364,"to_node":11002700080,"width_m":6,"width_source":"inferred_lanes","width_conf":0.4,"width_note":"estimated from 2 lanes","tanker_gap_m":3.5,"severity_if_tanker":"squeeze"}},{"type":"Feature","id":1685049467,"geometry":{"type":"LineString","coordinates":[[77.670302,12.9871955],[77.6702934,12.9873011]]},"properties":{"id":"w119050741:4","osm_way_id":119050741,"name":"unnamed residential off Kaggadasapura Main Road","highway":"residential","length_m":11.8,"lanes":2,"oneway":false,"from_node":11002700080,"to_node":11002700065,"width_m":6,"width_source":"inferred_lanes","width_conf":0.4,"width_note":"estimated from 2 lanes","tanker_gap_m":3.5,"severity_if_tanker":"squeeze"}},{"type":"Feature","id":1685049466,"geometry":{"type":"LineString","coordinates":[[77.6702934,12.9873011],[77.6702856,12.9873963]]},"properties":{"id":"w119050741:5","osm_way_id":119050741,"name":"unnamed residential off Kaggadasapura Main Road","highway":"residential","length_m":10.6,"lanes":2,"oneway":false,"from_node":11002700065,"to_node":3357301794,"width_m":6,"width_source":"inferred_lanes","width_conf":0.4,"width_note":"estimated from 2 lanes","tanker_gap_m":3.5,"severity_if_tanker":"squeeze"}},{"type":"Feature","id":1685049465,"geometry":{"type":"LineString","coordinates":[[77.6702856,12.9873963],[77.6702674,12.9876131],[77.6703771,12.9886358],[77.6696531,12.9886925]]},"properties":{"id":"w119050741:6","osm_way_id":119050741,"name":"unnamed residential off Kaggadasapura Main Road","highway":"residential","length_m":217.2,"lanes":2,"oneway":false,"from_node":3357301794,"to_node":1338425089,"width_m":6,"width_source":"inferred_lanes","width_conf":0.4,"width_note":"estimated from 2 lanes","tanker_gap_m":3.5,"severity_if_tanker":"squeeze"}},{"type":"Feature","id":421729882,"geometry":{"type":"LineString","coordinates":[[77.669294,12.9876711],[77.6684935,12.9876777]]},"properties":{"id":"w142865483:0","osm_way_id":142865483,"name":"unnamed service off Kaggadasapura Main Road","highway":"service","length_m":86.7,"lanes":null,"oneway":false,"from_node":1563324011,"to_node":1563324002,"width_m":4,"width_source":"class_default","width_conf":0.2,"width_note":"assumed from road class (service) — unverified","tanker_gap_m":1.5,"severity_if_tanker":"blocked"}},{"type":"Feature","id":421728921,"geometry":{"type":"LineString","coordinates":[[77.668493,12.9888395],[77.6685885,12.9887815],[77.6687059,12.9886399],[77.668797,12.9884941],[77.6688192,12.98829],[77.6687323,12.9881244],[77.6686545,12.9880175],[77.6684934,12.9878866]]},"properties":{"id":"w142865484:0","osm_way_id":142865484,"name":"unnamed service off Kaggadasapura Main Road","highway":"service","length_m":132.2,"lanes":null,"oneway":false,"from_node":1563324010,"to_node":1563324004,"width_m":4,"width_source":"class_default","width_conf":0.2,"width_note":"assumed from road class (service) — unverified","tanker_gap_m":1.5,"severity_if_tanker":"blocked"}},{"type":"Feature","id":420921681,"geometry":{"type":"LineString","coordinates":[[77.6684936,12.9875022],[77.6680665,12.9875043]]},"properties":{"id":"w142865547:0","osm_way_id":142865547,"name":"unnamed service off Kaggadasapura Main Road","highway":"service","length_m":46.3,"lanes":null,"oneway":false,"from_node":1563324346,"to_node":1563324344,"width_m":4,"width_source":"class_default","width_conf":0.2,"width_note":"assumed from road class (service) — unverified","tanker_gap_m":1.5,"severity_if_tanker":"blocked"}},{"type":"Feature","id":420921680,"geometry":{"type":"LineString","coordinates":[[77.6680665,12.9875043],[77.6679758,12.9875187],[77.6679251,12.9875499],[77.6678668,12.9876484],[77.6678646,12.9877585],[77.6679214,12.9878292],[77.6679931,12.9878799],[77.6680607,12.9878994]]},"properties":{"id":"w142865547:1","osm_way_id":142865547,"name":"unnamed service off Kaggadasapura Main Road","highway":"service","length_m":68.6,"lanes":null,"oneway":false,"from_node":1563324344,"to_node":1563324343,"width_m":4,"width_source":"class_default","width_conf":0.2,"width_note":"assumed from road class (service) — unverified","tanker_gap_m":1.5,"severity_if_tanker":"blocked"}},{"type":"Feature","id":420921679,"geometry":{"type":"LineString","coordinates":[[77.6680607,12.9878994],[77.6684934,12.9879059]]},"properties":{"id":"w142865547:2","osm_way_id":142865547,"name":"unnamed service off Kaggadasapura Main Road","highway":"service","length_m":46.9,"lanes":null,"oneway":false,"from_node":1563324343,"to_node":1563324334,"width_m":4,"width_source":"class_default","width_conf":0.2,"width_note":"assumed from road class (service) — unverified","tanker_gap_m":1.5,"severity_if_tanker":"blocked"}},{"type":"Feature","id":420920720,"geometry":{"type":"LineString","coordinates":[[77.6684932,12.9882815],[77.6683365,12.9882917],[77.6681952,12.9883699],[77.668135,12.9884282],[77.668102,12.9884862]]},"properties":{"id":"w142865548:0","osm_way_id":142865548,"name":"unnamed service off Kaggadasapura Main Road","highway":"service","length_m":51.2,"lanes":null,"oneway":false,"from_node":1563324348,"to_node":1563324349,"width_m":4,"width_source":"class_default","width_conf":0.2,"width_note":"assumed from road class (service) — unverified","tanker_gap_m":1.5,"severity_if_tanker":"blocked"}},{"type":"Feature","id":420920719,"geometry":{"type":"LineString","coordinates":[[77.668102,12.9884862],[77.6680669,12.9886493],[77.6680881,12.9887554],[77.6681191,12.9888185],[77.6681685,12.9888664],[77.6683374,12.9888951],[77.6684929,12.9889166]]},"properties":{"id":"w142865548:1","osm_way_id":142865548,"name":"unnamed service off Kaggadasapura Main Road","highway":"service","length_m":81.5,"lanes":null,"oneway":false,"from_node":1563324349,"to_node":1563324356,"width_m":4,"width_source":"class_default","width_conf":0.2,"width_note":"assumed from road class (service) — unverified","tanker_gap_m":1.5,"severity_if_tanker":"blocked"}},{"type":"Feature","id":420919759,"geometry":{"type":"LineString","coordinates":[[77.6680796,12.9869598],[77.6680633,12.987212]]},"properties":{"id":"w142865549:0","osm_way_id":142865549,"name":"unnamed service off Kaggadasapura Main Road","highway":"service","length_m":28.1,"lanes":null,"oneway":false,"from_node":1563324333,"to_node":1563324337,"width_m":4,"width_source":"class_default","width_conf":0.2,"width_note":"assumed from road class (service) — unverified","tanker_gap_m":1.5,"severity_if_tanker":"blocked"}},{"type":"Feature","id":420919758,"geometry":{"type":"LineString","coordinates":[[77.6680633,12.987212],[77.6680665,12.9875043]]},"properties":{"id":"w142865549:1","osm_way_id":142865549,"name":"unnamed service off Kaggadasapura Main Road","highway":"service","length_m":32.5,"lanes":null,"oneway":false,"from_node":1563324337,"to_node":1563324344,"width_m":4,"width_source":"class_default","width_conf":0.2,"width_note":"assumed from road class (service) — unverified","tanker_gap_m":1.5,"severity_if_tanker":"blocked"}},{"type":"Feature","id":420898617,"geometry":{"type":"LineString","coordinates":[[77.6677876,12.987178],[77.6680633,12.987212]]},"properties":{"id":"w142865550:0","osm_way_id":142865550,"name":"unnamed service off Kaggadasapura Main Road","highway":"service","length_m":30.1,"lanes":null,"oneway":false,"from_node":1563324327,"to_node":1563324337,"width_m":4,"width_source":"class_default","width_conf":0.2,"width_note":"assumed from road class (service) — unverified","tanker_gap_m":1.5,"severity_if_tanker":"blocked"}},{"type":"Feature","id":420897656,"geometry":{"type":"LineString","coordinates":[[77.6680607,12.9878994],[77.6680774,12.9882124]]},"properties":{"id":"w142865551:0","osm_way_id":142865551,"name":"unnamed service off Kaggadasapura Main Road","highway":"service","length_m":34.9,"lanes":null,"oneway":false,"from_node":1563324343,"to_node":1563324357,"width_m":4,"width_source":"class_default","width_conf":0.2,"width_note":"assumed from road class (service) — unverified","tanker_gap_m":1.5,"severity_if_tanker":"blocked"}},{"type":"Feature","id":420897655,"geometry":{"type":"LineString","coordinates":[[77.6680774,12.9882124],[77.668102,12.9884862]]},"properties":{"id":"w142865551:1","osm_way_id":142865551,"name":"unnamed service off Kaggadasapura Main Road","highway":"service","length_m":30.6,"lanes":null,"oneway":false,"from_node":1563324357,"to_node":1563324349,"width_m":4,"width_source":"class_default","width_conf":0.2,"width_note":"assumed from road class (service) — unverified","tanker_gap_m":1.5,"severity_if_tanker":"blocked"}},{"type":"Feature","id":420896695,"geometry":{"type":"LineString","coordinates":[[77.668494,12.9864714],[77.6683142,12.98647],[77.66814,12.9865602],[77.6680329,12.9866535],[77.6680227,12.9867621],[77.6680444,12.9868931],[77.6680796,12.9869598]]},"properties":{"id":"w142865552:0","osm_way_id":142865552,"name":"unnamed service off Kaggadasapura Main Road","highway":"service","length_m":91.6,"lanes":null,"oneway":false,"from_node":1563324324,"to_node":1563324333,"width_m":4,"width_source":"class_default","width_conf":0.2,"width_note":"assumed from road class (service) — unverified","tanker_gap_m":1.5,"severity_if_tanker":"blocked"}},{"type":"Feature","id":420896694,"geometry":{"type":"LineString","coordinates":[[77.6680796,12.9869598],[77.6681666,12.9870492],[77.6682693,12.9871245],[77.6683325,12.9871395],[77.6684937,12.9871637]]},"properties":{"id":"w142865552:1","osm_way_id":142865552,"name":"unnamed service off Kaggadasapura Main Road","highway":"service","length_m":52.3,"lanes":null,"oneway":false,"from_node":1563324333,"to_node":1563324336,"width_m":4,"width_source":"class_default","width_conf":0.2,"width_note":"assumed from road class (service) — unverified","tanker_gap_m":1.5,"severity_if_tanker":"blocked"}},{"type":"Feature","id":420895734,"geometry":{"type":"LineString","coordinates":[[77.6677944,12.9881791],[77.6680774,12.9882124]]},"properties":{"id":"w142865553:0","osm_way_id":142865553,"name":"unnamed service off Kaggadasapura Main Road","highway":"service","length_m":30.9,"lanes":null,"oneway":false,"from_node":1563324353,"to_node":1563324357,"width_m":4,"width_source":"class_default","width_conf":0.2,"width_note":"assumed from road class (service) — unverified","tanker_gap_m":1.5,"severity_if_tanker":"blocked"}},{"type":"Feature","id":2041455373,"geometry":{"type":"LineString","coordinates":[[77.6714187,12.9879991],[77.6712008,12.9881528],[77.6711805,12.9881629]]},"properties":{"id":"w660364588:0","osm_way_id":660364588,"name":"unnamed service off Kaggadasapura Main Road","highway":"service","length_m":31.6,"lanes":null,"oneway":false,"from_node":9680279761,"to_node":11281361300,"width_m":6,"width_source":"osm_tag","width_conf":0.85,"width_note":"tagged in OpenStreetMap","tanker_gap_m":3.5,"severity_if_tanker":"squeeze"}},{"type":"Feature","id":2041455372,"geometry":{"type":"LineString","coordinates":[[77.6711805,12.9881629],[77.6708279,12.9883382]]},"properties":{"id":"w660364588:1","osm_way_id":660364588,"name":"unnamed service off Kaggadasapura Main Road","highway":"service","length_m":42.9,"lanes":null,"oneway":false,"from_node":11281361300,"to_node":11281361298,"width_m":6,"width_source":"osm_tag","width_conf":0.85,"width_note":"tagged in OpenStreetMap","tanker_gap_m":3.5,"severity_if_tanker":"squeeze"}},{"type":"Feature","id":2041455371,"geometry":{"type":"LineString","coordinates":[[77.6708279,12.9883382],[77.6707133,12.9883952],[77.6705658,12.9883331],[77.6705168,12.9882828],[77.6705047,12.9882305],[77.6704478,12.9878536],[77.6704136,12.9876405],[77.6704158,12.9874039]]},"properties":{"id":"w660364588:2","osm_way_id":660364588,"name":"unnamed service off Kaggadasapura Main Road","highway":"service","length_m":137.7,"lanes":null,"oneway":false,"from_node":11281361298,"to_node":6182875159,"width_m":6,"width_source":"osm_tag","width_conf":0.85,"width_note":"tagged in OpenStreetMap","tanker_gap_m":3.5,"severity_if_tanker":"squeeze"}},{"type":"Feature","id":937902196,"geometry":{"type":"LineString","coordinates":[[77.6671734,12.988633],[77.6672061,12.9884536]]},"properties":{"id":"w800439570:1","osm_way_id":800439570,"name":"unnamed residential off Kaggadasapura Main Road","highway":"residential","length_m":20.3,"lanes":null,"oneway":true,"from_node":13150307855,"to_node":6132959510,"width_m":6,"width_source":"class_default","width_conf":0.2,"width_note":"assumed from road class (residential) — unverified","tanker_gap_m":3.5,"severity_if_tanker":"squeeze"}},{"type":"Feature","id":937902195,"geometry":{"type":"LineString","coordinates":[[77.6672061,12.9884536],[77.6672487,12.9882029]]},"properties":{"id":"w800439570:2","osm_way_id":800439570,"name":"unnamed residential off Kaggadasapura Main Road","highway":"residential","length_m":28.3,"lanes":null,"oneway":true,"from_node":6132959510,"to_node":13150307851,"width_m":6,"width_source":"class_default","width_conf":0.2,"width_note":"assumed from road class (residential) — unverified","tanker_gap_m":3.5,"severity_if_tanker":"squeeze"}},{"type":"Feature","id":937902194,"geometry":{"type":"LineString","coordinates":[[77.6672487,12.9882029],[77.6672763,12.9880403]]},"properties":{"id":"w800439570:3","osm_way_id":800439570,"name":"unnamed residential off Kaggadasapura Main Road","highway":"residential","length_m":18.3,"lanes":null,"oneway":true,"from_node":13150307851,"to_node":13150307847,"width_m":6,"width_source":"class_default","width_conf":0.2,"width_note":"assumed from road class (residential) — unverified","tanker_gap_m":3.5,"severity_if_tanker":"squeeze"}},{"type":"Feature","id":937902193,"geometry":{"type":"LineString","coordinates":[[77.6672763,12.9880403],[77.6672828,12.9879597]]},"properties":{"id":"w800439570:4","osm_way_id":800439570,"name":"unnamed residential off Kaggadasapura Main Road","highway":"residential","length_m":9,"lanes":null,"oneway":true,"from_node":13150307847,"to_node":11630509669,"width_m":6,"width_source":"class_default","width_conf":0.2,"width_note":"assumed from road class (residential) — unverified","tanker_gap_m":3.5,"severity_if_tanker":"squeeze"}},{"type":"Feature","id":937902192,"geometry":{"type":"LineString","coordinates":[[77.6672828,12.9879597],[77.6672935,12.9877892]]},"properties":{"id":"w800439570:5","osm_way_id":800439570,"name":"unnamed residential off Kaggadasapura Main Road","highway":"residential","length_m":19,"lanes":null,"oneway":true,"from_node":11630509669,"to_node":6132959509,"width_m":6,"width_source":"class_default","width_conf":0.2,"width_note":"assumed from road class (residential) — unverified","tanker_gap_m":3.5,"severity_if_tanker":"squeeze"}},{"type":"Feature","id":937902191,"geometry":{"type":"LineString","coordinates":[[77.6672935,12.9877892],[77.667365,12.9876912],[77.6673589,12.9874274],[77.667329,12.9873855]]},"properties":{"id":"w800439570:6","osm_way_id":800439570,"name":"unnamed residential off Kaggadasapura Main Road","highway":"residential","length_m":48.4,"lanes":null,"oneway":true,"from_node":6132959509,"to_node":9677884757,"width_m":6,"width_source":"class_default","width_conf":0.2,"width_note":"assumed from road class (residential) — unverified","tanker_gap_m":3.5,"severity_if_tanker":"squeeze"}},{"type":"Feature","id":937902190,"geometry":{"type":"LineString","coordinates":[[77.667329,12.9873855],[77.6673163,12.9871315]]},"properties":{"id":"w800439570:7","osm_way_id":800439570,"name":"unnamed residential off Kaggadasapura Main Road","highway":"residential","length_m":28.3,"lanes":null,"oneway":true,"from_node":9677884757,"to_node":13150315170,"width_m":6,"width_source":"class_default","width_conf":0.2,"width_note":"assumed from road class (residential) — unverified","tanker_gap_m":3.5,"severity_if_tanker":"squeeze"}},{"type":"Feature","id":937902189,"geometry":{"type":"LineString","coordinates":[[77.6673163,12.9871315],[77.6673074,12.9869551]]},"properties":{"id":"w800439570:8","osm_way_id":800439570,"name":"unnamed residential off Kaggadasapura Main Road","highway":"residential","length_m":19.6,"lanes":null,"oneway":true,"from_node":13150315170,"to_node":13150315174,"width_m":6,"width_source":"class_default","width_conf":0.2,"width_note":"assumed from road class (residential) — unverified","tanker_gap_m":3.5,"severity_if_tanker":"squeeze"}},{"type":"Feature","id":937902188,"geometry":{"type":"LineString","coordinates":[[77.6673074,12.9869551],[77.6672945,12.9866975]]},"properties":{"id":"w800439570:9","osm_way_id":800439570,"name":"unnamed residential off Kaggadasapura Main Road","highway":"residential","length_m":28.7,"lanes":null,"oneway":true,"from_node":13150315174,"to_node":11630509673,"width_m":6,"width_source":"class_default","width_conf":0.2,"width_note":"assumed from road class (residential) — unverified","tanker_gap_m":3.5,"severity_if_tanker":"squeeze"}},{"type":"Feature","id":989803044,"geometry":{"type":"LineString","coordinates":[[77.6672945,12.9866975],[77.667285,12.9865083],[77.6672378,12.9862619],[77.6671144,12.9862514],[77.6670581,12.9861573],[77.6669677,12.9861473],[77.666888,12.9861434]]},"properties":{"id":"w800439570:10","osm_way_id":800439570,"name":"unnamed residential off Kaggadasapura Main Road","highway":"residential","length_m":93,"lanes":null,"oneway":true,"from_node":11630509673,"to_node":6132959536,"width_m":6,"width_source":"class_default","width_conf":0.2,"width_note":"assumed from road class (residential) — unverified","tanker_gap_m":3.5,"severity_if_tanker":"squeeze"}},{"type":"Feature","id":1597873328,"geometry":{"type":"LineString","coordinates":[[77.6704158,12.9874039],[77.6705745,12.9873935],[77.6707971,12.9874458],[77.67104,12.9875711],[77.6711391,12.9876222],[77.6714187,12.9879991]]},"properties":{"id":"w1053353601:0","osm_way_id":1053353601,"name":"unnamed service off Kaggadasapura Main Road","highway":"service","length_m":135.7,"lanes":null,"oneway":false,"from_node":6182875159,"to_node":9680279761,"width_m":6,"width_source":"osm_tag","width_conf":0.85,"width_note":"tagged in OpenStreetMap","tanker_gap_m":3.5,"severity_if_tanker":"squeeze"}},{"type":"Feature","id":1597874289,"geometry":{"type":"LineString","coordinates":[[77.6702856,12.9873963],[77.6703333,12.9873995],[77.6704158,12.9874039]]},"properties":{"id":"w1053353602:0","osm_way_id":1053353602,"name":"unnamed service off Kaggadasapura Main Road","highway":"service","length_m":14.1,"lanes":null,"oneway":false,"from_node":3357301794,"to_node":6182875159,"width_m":6,"width_source":"osm_tag","width_conf":0.85,"width_note":"tagged in OpenStreetMap","tanker_gap_m":3.5,"severity_if_tanker":"squeeze"}},{"type":"Feature","id":559405192,"geometry":{"type":"LineString","coordinates":[[77.6703598,12.9862507],[77.6702879,12.9862877],[77.6700314,12.98646],[77.6699925,12.9865284],[77.6699791,12.9867075],[77.6700743,12.9868512],[77.6701748,12.986927],[77.6702587,12.9869659],[77.6703177,12.9870131]]},"properties":{"id":"w1057089160:0","osm_way_id":1057089160,"name":"unnamed service off Kaggadasapura Main Road","highway":"service","length_m":122.4,"lanes":null,"oneway":false,"from_node":9713227369,"to_node":9713227364,"width_m":4,"width_source":"class_default","width_conf":0.2,"width_note":"assumed from road class (service) — unverified","tanker_gap_m":1.5,"severity_if_tanker":"blocked"}},{"type":"Feature","id":710597708,"geometry":{"type":"LineString","coordinates":[[77.6703371,12.9867411],[77.6703788,12.9867444],[77.6707103,12.9867706]]},"properties":{"id":"w1102493168:0","osm_way_id":1102493168,"name":"unnamed service off Kaggadasapura Main Road","highway":"service","length_m":40.6,"lanes":null,"oneway":false,"from_node":10088394323,"to_node":10088394324,"width_m":4,"width_source":"class_default","width_conf":0.2,"width_note":"assumed from road class (service) — unverified","tanker_gap_m":1.5,"severity_if_tanker":"blocked"}},{"type":"Feature","id":710597707,"geometry":{"type":"LineString","coordinates":[[77.6707103,12.9867706],[77.6706847,12.986987]]},"properties":{"id":"w1102493168:1","osm_way_id":1102493168,"name":"unnamed service off Kaggadasapura Main Road","highway":"service","length_m":24.2,"lanes":null,"oneway":false,"from_node":10088394324,"to_node":11005289882,"width_m":4,"width_source":"class_default","width_conf":0.2,"width_note":"assumed from road class (service) — unverified","tanker_gap_m":1.5,"severity_if_tanker":"blocked"}},{"type":"Feature","id":710596747,"geometry":{"type":"LineString","coordinates":[[77.6707103,12.9867706],[77.6707252,12.9865077]]},"properties":{"id":"w1102493169:0","osm_way_id":1102493169,"name":"unnamed service off Kaggadasapura Main Road","highway":"service","length_m":29.3,"lanes":null,"oneway":false,"from_node":10088394324,"to_node":10088394326,"width_m":4,"width_source":"class_default","width_conf":0.2,"width_note":"assumed from road class (service) — unverified","tanker_gap_m":1.5,"severity_if_tanker":"blocked"}},{"type":"Feature","id":709825064,"geometry":{"type":"LineString","coordinates":[[77.6694288,12.9863484],[77.6695457,12.9866958],[77.669549,12.9876615],[77.6693889,12.9886024],[77.6690616,12.9891373]]},"properties":{"id":"w1102493216:0","osm_way_id":1102493216,"name":"unnamed service off Kaggadasapura Main Road","highway":"service","length_m":323.3,"lanes":null,"oneway":false,"from_node":10112915070,"to_node":1154147727,"width_m":4,"width_source":"class_default","width_conf":0.2,"width_note":"assumed from road class (service) — unverified","tanker_gap_m":1.5,"severity_if_tanker":"blocked"}},{"type":"Feature","id":709824103,"geometry":{"type":"LineString","coordinates":[[77.6690616,12.9891373],[77.668825,12.9895869]]},"properties":{"id":"w1102493217:0","osm_way_id":1102493217,"name":"unnamed residential off Kaggadasapura Main Road","highway":"residential","length_m":56.2,"lanes":null,"oneway":false,"from_node":1154147727,"to_node":10088394422,"width_m":6,"width_source":"class_default","width_conf":0.2,"width_note":"assumed from road class (residential) — unverified","tanker_gap_m":3.5,"severity_if_tanker":"squeeze"}},{"type":"Feature","id":709823142,"geometry":{"type":"LineString","coordinates":[[77.6672935,12.9877892],[77.6671017,12.9877181],[77.6670983,12.9875346],[77.6671251,12.9874196],[77.667329,12.9873855]]},"properties":{"id":"w1102493218:0","osm_way_id":1102493218,"name":"unnamed residential off Kaggadasapura Main Road","highway":"residential","length_m":78.2,"lanes":null,"oneway":false,"from_node":6132959509,"to_node":9677884757,"width_m":6,"width_source":"class_default","width_conf":0.2,"width_note":"assumed from road class (residential) — unverified","tanker_gap_m":3.5,"severity_if_tanker":"squeeze"}},{"type":"Feature","id":1881332245,"geometry":{"type":"LineString","coordinates":[[77.6712229,12.9864324],[77.6710726,12.9864323],[77.6710492,12.9869525],[77.6711944,12.9869646]]},"properties":{"id":"w1104921134:0","osm_way_id":1104921134,"name":"unnamed service off Kaggadasapura Main Road","highway":"service","length_m":90,"lanes":null,"oneway":false,"from_node":10088394398,"to_node":10111055383,"width_m":4,"width_source":"class_default","width_conf":0.2,"width_note":"assumed from road class (service) — unverified","tanker_gap_m":1.5,"severity_if_tanker":"blocked"}},{"type":"Feature","id":1776868027,"geometry":{"type":"LineString","coordinates":[[77.6711805,12.9881629],[77.6709641,12.9879326],[77.6708279,12.9883382]]},"properties":{"id":"w1217530856:0","osm_way_id":1217530856,"name":"unnamed service off Kaggadasapura Main Road","highway":"service","length_m":82.2,"lanes":null,"oneway":false,"from_node":11281361300,"to_node":11281361298,"width_m":4,"width_source":"class_default","width_conf":0.2,"width_note":"assumed from road class (service) — unverified","tanker_gap_m":1.5,"severity_if_tanker":"blocked"}},{"type":"Feature","id":610436128,"geometry":{"type":"LineString","coordinates":[[77.6693741,12.9861859],[77.6695401,12.98622],[77.6698915,12.9862288],[77.6702087,12.9862052],[77.6703624,12.9861937]]},"properties":{"id":"w1229190432:0","osm_way_id":1229190432,"name":"Kaggadasapura Main Road","highway":"secondary","length_m":107.6,"lanes":2,"oneway":false,"from_node":10088394419,"to_node":1338425088,"width_m":6,"width_source":"inferred_lanes","width_conf":0.4,"width_note":"estimated from 2 lanes","tanker_gap_m":3.5,"severity_if_tanker":"squeeze"}},{"type":"Feature","id":123097929,"geometry":{"type":"LineString","coordinates":[[77.6672798,12.9883666],[77.6673249,12.9880382],[77.6672828,12.9879597]]},"properties":{"id":"w1251172317:0","osm_way_id":1251172317,"name":"unnamed residential off Kaggadasapura Main Road","highway":"residential","length_m":46.7,"lanes":null,"oneway":true,"from_node":11630436767,"to_node":11630509669,"width_m":6,"width_source":"class_default","width_conf":0.2,"width_note":"assumed from road class (residential) — unverified","tanker_gap_m":3.5,"severity_if_tanker":"squeeze"}},{"type":"Feature","id":123096968,"geometry":{"type":"LineString","coordinates":[[77.66737,12.98708],[77.6673549,12.9867829],[77.6673378,12.9867202],[77.6672945,12.9866975]]},"properties":{"id":"w1251172318:0","osm_way_id":1251172318,"name":"unnamed residential off Kaggadasapura Main Road","highway":"residential","length_m":45.6,"lanes":null,"oneway":true,"from_node":11630509670,"to_node":11630509673,"width_m":6,"width_source":"class_default","width_conf":0.2,"width_note":"assumed from road class (residential) — unverified","tanker_gap_m":3.5,"severity_if_tanker":"squeeze"}},{"type":"Feature","id":440511074,"geometry":{"type":"LineString","coordinates":[[77.6673074,12.9869551],[77.6671332,12.9869616],[77.6670943,12.9870414],[77.6671379,12.9871354],[77.6673163,12.9871315]]},"properties":{"id":"w1430649330:0","osm_way_id":1430649330,"name":"unnamed residential off Kaggadasapura Main Road","highway":"residential","length_m":59.5,"lanes":null,"oneway":false,"from_node":13150315174,"to_node":13150315170,"width_m":6,"width_source":"class_default","width_conf":0.2,"width_note":"assumed from road class (residential) — unverified","tanker_gap_m":3.5,"severity_if_tanker":"squeeze"}}]}